<?xml version="1.0" encoding="UTF-8"?>
<ndm xmlns:xsi="http://www.w3.org/2001/XMLSchema-instance" xsi:noNamespaceSchemaLocation="https://sanaregistry.org/r/ndmxml_unqualified/ndmxml-2.0.0-master-2.0.xsd">
<omm id="CCSDS_OMM_VERS" version="2.0">
<header><CREATION_DATE/><ORIGINATOR/></header><body><segment><metadata><OBJECT_NAME>ORBCOMM FM115</OBJECT_NAME><OBJECT_ID>2015-081H</OBJECT_ID><CENTER_NAME>EARTH</CENTER_NAME><REF_FRAME>TEME</REF_FRAME><TIME_SYSTEM>UTC</TIME_SYSTEM><MEAN_ELEMENT_THEORY>SGP4</MEAN_ELEMENT_THEORY></metadata><data><meanElements><EPOCH>2024-05-19T07:45:23.358528</EPOCH><MEAN_MOTION>14.60715500</MEAN_MOTION><ECCENTRICITY>.0000631</ECCENTRICITY><INCLINATION>46.9969</INCLINATION><RA_OF_ASC_NODE>110.2650</RA_OF_ASC_NODE><ARG_OF_PERICENTER>346.1767</ARG_OF_PERICENTER><MEAN_ANOMALY>13.9102</MEAN_ANOMALY></meanElements><tleParameters><EPHEMERIS_TYPE>0</EPHEMERIS_TYPE><CLASSIFICATION_TYPE>U</CLASSIFICATION_TYPE><NORAD_CAT_ID>41186</NORAD_CAT_ID><ELEMENT_SET_NO>999</ELEMENT_SET_NO><REV_AT_EPOCH>45015</REV_AT_EPOCH><BSTAR>.61605E-3</BSTAR><MEAN_MOTION_DOT>.2861E-4</MEAN_MOTION_DOT><MEAN_MOTION_DDOT>0</MEAN_MOTION_DDOT></tleParameters></data></segment></body></omm>
<omm id="CCSDS_OMM_VERS" version="2.0">
<header><CREATION_DATE/><ORIGINATOR/></header><body><segment><metadata><OBJECT_NAME>ORBCOMM FM108</OBJECT_NAME><OBJECT_ID>2015-081J</OBJECT_ID><CENTER_NAME>EARTH</CENTER_NAME><REF_FRAME>TEME</REF_FRAME><TIME_SYSTEM>UTC</TIME_SYSTEM><MEAN_ELEMENT_THEORY>SGP4</MEAN_ELEMENT_THEORY></metadata><data><meanElements><EPOCH>2024-05-19T02:53:11.785056</EPOCH><MEAN_MOTION>14.56625573</MEAN_MOTION><ECCENTRICITY>.0003597</ECCENTRICITY><INCLINATION>47.0033</INCLINATION><RA_OF_ASC_NODE>165.8009</RA_OF_ASC_NODE><ARG_OF_PERICENTER>294.5308</ARG_OF_PERICENTER><MEAN_ANOMALY>65.5202</MEAN_ANOMALY></meanElements><tleParameters><EPHEMERIS_TYPE>0</EPHEMERIS_TYPE><CLASSIFICATION_TYPE>U</CLASSIFICATION_TYPE><NORAD_CAT_ID>41187</NORAD_CAT_ID><ELEMENT_SET_NO>999</ELEMENT_SET_NO><REV_AT_EPOCH>44931</REV_AT_EPOCH><BSTAR>.41724E-3</BSTAR><MEAN_MOTION_DOT>.1711E-4</MEAN_MOTION_DOT><MEAN_MOTION_DDOT>0</MEAN_MOTION_DDOT></tleParameters></data></segment></body></omm>
<omm id="CCSDS_OMM_VERS" version="2.0">
<header><CREATION_DATE/><ORIGINATOR/></header><body><segment><metadata><OBJECT_NAME>ORBCOMM FM117</OBJECT_NAME><OBJECT_ID>2015-081K</OBJECT_ID><CENTER_NAME>EARTH</CENTER_NAME><REF_FRAME>TEME</REF_FRAME><TIME_SYSTEM>UTC</TIME_SYSTEM><MEAN_ELEMENT_THEORY>SGP4</MEAN_ELEMENT_THEORY></metadata><data><meanElements><EPOCH>2024-05-19T10:18:00.693216</EPOCH><MEAN_MOTION>14.56600290</MEAN_MOTION><ECCENTRICITY>.0003957</ECCENTRICITY><INCLINATION>46.9995</INCLINATION><RA_OF_ASC_NODE>163.2373</RA_OF_ASC_NODE><ARG_OF_PERICENTER>306.6572</ARG_OF_PERICENTER><MEAN_ANOMALY>53.3949</MEAN_ANOMALY></meanElements><tleParameters><EPHEMERIS_TYPE>0</EPHEMERIS_TYPE><CLASSIFICATION_TYPE>U</CLASSIFICATION_TYPE><NORAD_CAT_ID>41188</NORAD_CAT_ID><ELEMENT_SET_NO>999</ELEMENT_SET_NO><REV_AT_EPOCH>44940</REV_AT_EPOCH><BSTAR>.38925E-3</BSTAR><MEAN_MOTION_DOT>.1584E-4</MEAN_MOTION_DOT><MEAN_MOTION_DDOT>0</MEAN_MOTION_DDOT></tleParameters></data></segment></body></omm>
<omm id="CCSDS_OMM_VERS" version="2.0">
<header><CREATION_DATE/><ORIGINATOR/></header><body><segment><metadata><OBJECT_NAME>ORBCOMM FM116</OBJECT_NAME><OBJECT_ID>2015-081L</OBJECT_ID><CENTER_NAME>EARTH</CENTER_NAME><REF_FRAME>TEME</REF_FRAME><TIME_SYSTEM>UTC</TIME_SYSTEM><MEAN_ELEMENT_THEORY>SGP4</MEAN_ELEMENT_THEORY></metadata><data><meanElements><EPOCH>2024-05-19T10:02:17.583648</EPOCH><MEAN_MOTION>14.56650455</MEAN_MOTION><ECCENTRICITY>.000119</ECCENTRICITY><INCLINATION>47.0008</INCLINATION><RA_OF_ASC_NODE>253.1070</RA_OF_ASC_NODE><ARG_OF_PERICENTER>26.1059</ARG_OF_PERICENTER><MEAN_ANOMALY>333.9886</MEAN_ANOMALY></meanElements><tleParameters><EPHEMERIS_TYPE>0</EPHEMERIS_TYPE><CLASSIFICATION_TYPE>U</CLASSIFICATION_TYPE><NORAD_CAT_ID>41189</NORAD_CAT_ID><ELEMENT_SET_NO>999</ELEMENT_SET_NO><REV_AT_EPOCH>44821</REV_AT_EPOCH><BSTAR>.7933E-3</BSTAR><MEAN_MOTION_DOT>.3408E-4</MEAN_MOTION_DOT><MEAN_MOTION_DDOT>0</MEAN_MOTION_DDOT></tleParameters></data></segment></body></omm>
</ndm>
