ORBCOMM FM115           
1 41186U 15081H   24140.32318702  .00002861  00000+0  61605-3 0  9999
2 41186  46.9969 110.2650 0000631 346.1767  13.9102 14.60715500450154
ORBCOMM FM108           
1 41187U 15081J   24140.12027529  .00001711  00000+0  41724-3 0  9995
2 41187  47.0033 165.8009 0003597 294.5308  65.5202 14.56625573449319
ORBCOMM FM117           
1 41188U 15081K   24140.42917469  .00001584  00000+0  38925-3 0  9997
2 41188  46.9995 163.2373 0003957 306.6572  53.3949 14.56600290449401
ORBCOMM FM116           
1 41189U 15081L   24140.41825907  .00003408  00000+0  79330-3 0  9994
2 41189  47.0008 253.1070 0001190  26.1059 333.9886 14.56650455448216
